start=new Date('2021-10-13T00:00:00.000Z').valueOf();
sats=[{"MEAN_MOTION_DOT":"0.00002382","TLE_LINE1":"1 47397U 21005BA  21285.49987297  .00002382  00000-0  17875-3 0  9997","EPHEMERIS_TYPE":"0","MEAN_ELEMENT_THEORY":"SGP4","RA_OF_ASC_NODE":"85.5631","TIME_SYSTEM":"UTC","BSTAR":"0.00017875000000","EPOCH":"2021-10-12T11:59:49.024608","ARG_OF_PERICENTER":"100.5780","OBJECT_ID":"2021-005BA","INCLINATION":"53.0558","CENTER_NAME":"EARTH","REV_AT_EPOCH":"4050","MEAN_ANOMALY":"259.5391","SITE":"AFETR","OBJECT_TYPE":"PAYLOAD","NORAD_CAT_ID":"47397","DECAY_DATE":null,"LAUNCH_DATE":"2021-01-20","OBJECT_NAME":"STARLINK-2119","ELEMENT_SET_NO":"999","PERIAPSIS":"546.086","TLE_LINE2":"2 47397  53.0558  85.5631 0001618 100.5780 259.5391 15.06402194 40508","CLASSIFICATION_TYPE":"U","GP_ID":"186982762","REF_FRAME":"TEME","COUNTRY_CODE":"US","MEAN_MOTION":"15.06402194","SEMIMAJOR_AXIS":"6925.342","APOAPSIS":"548.327","ECCENTRICITY":"0.00016180","MEAN_MOTION_DDOT":"0.0000000000000","PERIOD":"95.592","RCS_SIZE":"LARGE","FILE":"3158851"},{"MEAN_ELEMENT_THEORY":"SGP4","RA_OF_ASC_NODE":"55.3773","TLE_LINE1":"1 47398U 21005BB  21285.53949504  .00000482  00000-0  51284-4 0  9994","MEAN_MOTION_DOT":"0.00000482","EPHEMERIS_TYPE":"0","BSTAR":"0.00005128400000","EPOCH":"2021-10-12T12:56:52.371456","TIME_SYSTEM":"UTC","ARG_OF_PERICENTER":"84.7581","CENTER_NAME":"EARTH","OBJECT_ID":"2021-005BB","INCLINATION":"53.0538","SITE":"AFETR","MEAN_ANOMALY":"275.3624","REV_AT_EPOCH":"4092","NORAD_CAT_ID":"47398","OBJECT_TYPE":"PAYLOAD","OBJECT_NAME":"STARLINK-2120","DECAY_DATE":null,"LAUNCH_DATE":"2021-01-20","ELEMENT_SET_NO":"999","REF_FRAME":"TEME","GP_ID":"186983013","TLE_LINE2":"2 47398  53.0538  55.3773 0001894  84.7581 275.3624 15.06395788 40928","CLASSIFICATION_TYPE":"U","PERIAPSIS":"545.915","COUNTRY_CODE":"US","SEMIMAJOR_AXIS":"6925.361","MEAN_MOTION":"15.06395788","APOAPSIS":"548.538","PERIOD":"95.592","RCS_SIZE":"LARGE","MEAN_MOTION_DDOT":"0.0000000000000","ECCENTRICITY":"0.00018940","FILE":"3158851"},{"COUNTRY_CODE":"US","TLE_LINE2":"2 47399  53.0564  64.7102 0001270  90.8541 269.2593 15.06399860 40809","PERIAPSIS":"546.334","CLASSIFICATION_TYPE":"U","REF_FRAME":"TEME","GP_ID":"187015374","ELEMENT_SET_NO":"999","LAUNCH_DATE":"2021-01-20","DECAY_DATE":null,"OBJECT_NAME":"STARLINK-2121","FILE":"3159338","MEAN_MOTION_DDOT":"0.0000000000000","ECCENTRICITY":"0.00012700","RCS_SIZE":"LARGE","PERIOD":"95.592","APOAPSIS":"548.094","SEMIMAJOR_AXIS":"6925.349","MEAN_MOTION":"15.06399860","INCLINATION":"53.0564","OBJECT_ID":"2021-005BC","CENTER_NAME":"EARTH","ARG_OF_PERICENTER":"90.8541","TIME_SYSTEM":"UTC","EPOCH":"2021-10-12T16:26:29.741280","BSTAR":"0.00004139700000","EPHEMERIS_TYPE":"0","TLE_LINE1":"1 47399U 21005BC  21285.68506645  .00000335  00000-0  41397-4 0  9997","MEAN_MOTION_DOT":"0.00000335","RA_OF_ASC_NODE":"64.7102","MEAN_ELEMENT_THEORY":"SGP4","OBJECT_TYPE":"PAYLOAD","NORAD_CAT_ID":"47399","REV_AT_EPOCH":"4080","MEAN_ANOMALY":"269.2593","SITE":"AFETR"},{"CENTER_NAME":"EARTH","INCLINATION":"53.0532","OBJECT_ID":"2021-005BD","ARG_OF_PERICENTER":"116.0827","BSTAR":"0.00012380000000","EPOCH":"2021-10-12T12:51:32.034816","TIME_SYSTEM":"UTC","RA_OF_ASC_NODE":"45.3873","MEAN_ELEMENT_THEORY":"SGP4","EPHEMERIS_TYPE":"0","TLE_LINE1":"1 47400U 21005BD  21285.53578744  .00001563  00000-0  12380-3 0  9996","MEAN_MOTION_DOT":"0.00001563","NORAD_CAT_ID":"47400","OBJECT_TYPE":"PAYLOAD","SITE":"AFETR","MEAN_ANOMALY":"244.0300","REV_AT_EPOCH":"4106","COUNTRY_CODE":"US","GP_ID":"186991079","REF_FRAME":"TEME","PERIAPSIS":"546.280","TLE_LINE2":"2 47400  53.0532  45.3873 0001342 116.0827 244.0300 15.06401213 41067","CLASSIFICATION_TYPE":"U","ELEMENT_SET_NO":"999","OBJECT_NAME":"STARLINK-2122","LAUNCH_DATE":"2021-01-20","DECAY_DATE":null,"FILE":"3159189","RCS_SIZE":"LARGE","PERIOD":"95.592","ECCENTRICITY":"0.00013420","MEAN_MOTION_DDOT":"0.0000000000000","APOAPSIS":"548.139","MEAN_MOTION":"15.06401213","SEMIMAJOR_AXIS":"6925.345"},{"CENTER_NAME":"EARTH","OBJECT_ID":"2021-005BE","INCLINATION":"53.0579","ARG_OF_PERICENTER":"98.2031","EPOCH":"2021-10-12T11:42:33.788448","BSTAR":"0.00015567000000","TIME_SYSTEM":"UTC","MEAN_ELEMENT_THEORY":"SGP4","RA_OF_ASC_NODE":"55.6080","MEAN_MOTION_DOT":"0.00002038","TLE_LINE1":"1 47401U 21005BE  21285.48789107  .00002038  00000-0  15567-3 0  9996","EPHEMERIS_TYPE":"0","NORAD_CAT_ID":"47401","OBJECT_TYPE":"PAYLOAD","SITE":"AFETR","MEAN_ANOMALY":"261.9123","REV_AT_EPOCH":"4092","COUNTRY_CODE":"US","REF_FRAME":"TEME","GP_ID":"186982263","PERIAPSIS":"546.191","TLE_LINE2":"2 47401  53.0579  55.6080 0001456  98.2031 261.9123 15.06404620 40927","CLASSIFICATION_TYPE":"U","ELEMENT_SET_NO":"999","OBJECT_NAME":"STARLINK-2123","DECAY_DATE":null,"LAUNCH_DATE":"2021-01-20","FILE":"3158851","PERIOD":"95.592","RCS_SIZE":"LARGE","ECCENTRICITY":"0.00014560","MEAN_MOTION_DDOT":"0.0000000000000","APOAPSIS":"548.208","SEMIMAJOR_AXIS":"6925.334","MEAN_MOTION":"15.06404620"},{"ARG_OF_PERICENTER":"96.1465","OBJECT_ID":"2021-005BF","INCLINATION":"53.0569","CENTER_NAME":"EARTH","MEAN_MOTION_DOT":"0.00000646","TLE_LINE1":"1 47402U 21005BF  21285.63901061  .00000646  00000-0  62255-4 0  9999","EPHEMERIS_TYPE":"0","MEAN_ELEMENT_THEORY":"SGP4","RA_OF_ASC_NODE":"54.9317","TIME_SYSTEM":"UTC","EPOCH":"2021-10-12T15:20:10.516704","BSTAR":"0.00006225500000","OBJECT_TYPE":"PAYLOAD","NORAD_CAT_ID":"47402","MEAN_ANOMALY":"263.9699","REV_AT_EPOCH":"4094","SITE":"AFETR","TLE_LINE2":"2 47402  53.0569  54.9317 0001536  96.1465 263.9699 15.06402592 40947","CLASSIFICATION_TYPE":"U","PERIAPSIS":"546.142","REF_FRAME":"TEME","GP_ID":"187014623","COUNTRY_CODE":"US","DECAY_DATE":null,"LAUNCH_DATE":"2021-01-20","OBJECT_NAME":"STARLINK-2124","ELEMENT_SET_NO":"999","ECCENTRICITY":"0.00015360","MEAN_MOTION_DDOT":"0.0000000000000","PERIOD":"95.592","RCS_SIZE":"LARGE","FILE":"3159338","SEMIMAJOR_AXIS":"6925.341","MEAN_MOTION":"15.06402592","APOAPSIS":"548.269"},{"ELEMENT_SET_NO":"999","OBJECT_NAME":"STARLINK-2127","DECAY_DATE":null,"LAUNCH_DATE":"2021-01-20","COUNTRY_CODE":"US","REF_FRAME":"TEME","GP_ID":"187015874","PERIAPSIS":"546.271","TLE_LINE2":"2 47403  53.0570  54.8959 0001347  88.5535 271.5609 15.06403309 40947","CLASSIFICATION_TYPE":"U","APOAPSIS":"548.136","SEMIMAJOR_AXIS":"6925.338","MEAN_MOTION":"15.06403309","FILE":"3159338","PERIOD":"95.592","RCS_SIZE":"LARGE","ECCENTRICITY":"0.00013470","MEAN_MOTION_DDOT":"0.0000000000000","EPOCH":"2021-10-12T15:30:47.365056","BSTAR":"0.00006891500000","TIME_SYSTEM":"UTC","MEAN_ELEMENT_THEORY":"SGP4","RA_OF_ASC_NODE":"54.8959","MEAN_MOTION_DOT":"0.00000745","TLE_LINE1":"1 47403U 21005BG  21285.64638154  .00000745  00000-0  68915-4 0  9990","EPHEMERIS_TYPE":"0","CENTER_NAME":"EARTH","OBJECT_ID":"2021-005BG","INCLINATION":"53.0570","ARG_OF_PERICENTER":"88.5535","SITE":"AFETR","MEAN_ANOMALY":"271.5609","REV_AT_EPOCH":"4094","NORAD_CAT_ID":"47403","OBJECT_TYPE":"PAYLOAD"},{"OBJECT_NAME":"STARLINK-2128","DECAY_DATE":null,"LAUNCH_DATE":"2021-01-20","ELEMENT_SET_NO":"999","GP_ID":"187015625","REF_FRAME":"TEME","TLE_LINE2":"2 47404  53.0561  54.9106 0001391  98.1189 261.9958 15.06399100 40947","PERIAPSIS":"546.253","CLASSIFICATION_TYPE":"U","COUNTRY_CODE":"US","SEMIMAJOR_AXIS":"6925.351","MEAN_MOTION":"15.06399100","APOAPSIS":"548.180","PERIOD":"95.592","RCS_SIZE":"LARGE","MEAN_MOTION_DDOT":"0.0000000000000","ECCENTRICITY":"0.00013910","FILE":"3159338","MEAN_ELEMENT_THEORY":"SGP4","RA_OF_ASC_NODE":"54.9106","TLE_LINE1":"1 47404U 21005BH  21285.64269825  .00000866  00000-0  77055-4 0  9995","MEAN_MOTION_DOT":"0.00000866","EPHEMERIS_TYPE":"0","BSTAR":"0.00007705500000","EPOCH":"2021-10-12T15:25:29.128800","TIME_SYSTEM":"UTC","ARG_OF_PERICENTER":"98.1189","CENTER_NAME":"EARTH","OBJECT_ID":"2021-005BH","INCLINATION":"53.0561","SITE":"AFETR","MEAN_ANOMALY":"261.9958","REV_AT_EPOCH":"4094","NORAD_CAT_ID":"47404","OBJECT_TYPE":"PAYLOAD"},{"COUNTRY_CODE":"US","CLASSIFICATION_TYPE":"U","TLE_LINE2":"2 47405  53.0557  84.4396 0001379 106.1691 253.9450 15.05600343 40532","PERIAPSIS":"548.710","REF_FRAME":"TEME","GP_ID":"187014373","ELEMENT_SET_NO":"999","LAUNCH_DATE":"2021-01-20","DECAY_DATE":null,"OBJECT_NAME":"STARLINK-2130","FILE":"3159338","ECCENTRICITY":"0.00013790","MEAN_MOTION_DDOT":"0.0000000000000","RCS_SIZE":"LARGE","PERIOD":"95.643","APOAPSIS":"550.621","MEAN_MOTION":"15.05600343","SEMIMAJOR_AXIS":"6927.800","INCLINATION":"53.0557","OBJECT_ID":"2021-005BJ","CENTER_NAME":"EARTH","ARG_OF_PERICENTER":"106.1691","TIME_SYSTEM":"UTC","EPOCH":"2021-10-12T18:01:27.441984","BSTAR":"-0.00000466120000","EPHEMERIS_TYPE":"0","MEAN_MOTION_DOT":"-0.00000347","TLE_LINE1":"1 47405U 21005BJ  21285.75101206 -.00000347  00000-0 -46612-5 0  9998","RA_OF_ASC_NODE":"84.4396","MEAN_ELEMENT_THEORY":"SGP4","OBJECT_TYPE":"PAYLOAD","NORAD_CAT_ID":"47405","REV_AT_EPOCH":"4053","MEAN_ANOMALY":"253.9450","SITE":"AFETR"},{"ARG_OF_PERICENTER":"98.9184","INCLINATION":"53.0563","OBJECT_ID":"2021-005BK","CENTER_NAME":"EARTH","EPHEMERIS_TYPE":"0","TLE_LINE1":"1 47406U 21005BK  21285.65375575  .00000297  00000-0  38841-4 0  9996","MEAN_MOTION_DOT":"0.00000297","RA_OF_ASC_NODE":"54.8509","MEAN_ELEMENT_THEORY":"SGP4","TIME_SYSTEM":"UTC","EPOCH":"2021-10-12T15:41:24.496800","BSTAR":"0.00003884100000","OBJECT_TYPE":"PAYLOAD","NORAD_CAT_ID":"47406","REV_AT_EPOCH":"4094","MEAN_ANOMALY":"261.1985","SITE":"AFETR","TLE_LINE2":"2 47406  53.0563  54.8509 0001585  98.9184 261.1985 15.06393661 40943","CLASSIFICATION_TYPE":"U","PERIAPSIS":"546.135","GP_ID":"187015123","REF_FRAME":"TEME","COUNTRY_CODE":"US","LAUNCH_DATE":"2021-01-20","DECAY_DATE":null,"OBJECT_NAME":"STARLINK-2133","ELEMENT_SET_NO":"999","ECCENTRICITY":"0.00015850","MEAN_MOTION_DDOT":"0.0000000000000","RCS_SIZE":"LARGE","PERIOD":"95.593","FILE":"3159338","SEMIMAJOR_AXIS":"6925.368","MEAN_MOTION":"15.06393661","APOAPSIS":"548.331"}];
